XCUBE-1                 
1 62400U 24247Z   26068.48297321  .00009773  00000+0  36224-3 0  9994
2 62400  44.9938 117.7807 0005235 331.1499  28.9094 15.27910558 67702
STARLINK-35615          
1 66257U 25245Z   26068.90677539  .00024033  00000+0  82070-3 0  9993
2 66257  53.1574 282.6068 0000785  87.6641 272.4449 15.30209120 21296
